[{"OBJECT_NAME":"STARLINK-32509","OBJECT_ID":"2024-216L","EPOCH":"2026-03-09T22:34:20.726688","MEAN_MOTION":15.27606457,"ECCENTRICITY":0.00022668,"INCLINATION":43.0015,"RA_OF_ASC_NODE":254.9348,"ARG_OF_PERICENTER":263.1184,"MEAN_ANOMALY":96.941,"EPHEMERIS_TYPE":0,"CLASSIFICATION_TYPE":"U","NORAD_CAT_ID":62042,"ELEMENT_SET_NO":999,"REV_AT_EPOCH":7391,"BSTAR":0.00099152356,"MEAN_MOTION_DOT":0.00027146,"MEAN_MOTION_DDOT":0},{"OBJECT_NAME":"GEOSCAN 2 (RS92S2)","OBJECT_ID":"2025-155Q","EPOCH":"2026-03-09T23:01:48.939744","MEAN_MOTION":15.28709337,"ECCENTRICITY":0.00085277,"INCLINATION":97.4463,"RA_OF_ASC_NODE":37.5259,"ARG_OF_PERICENTER":140.9505,"MEAN_ANOMALY":219.2352,"EPHEMERIS_TYPE":0,"CLASSIFICATION_TYPE":"U","NORAD_CAT_ID":64890,"ELEMENT_SET_NO":999,"REV_AT_EPOCH":6561,"BSTAR":0.00051551761,"MEAN_MOTION_DOT":0.00014341,"MEAN_MOTION_DDOT":0}]
